{"type": "FeatureCollection", "features": [ {"type": "Feature", "properties": {"norad_id": 39620, "name": "COSMOS 2492 (754)", "group": "gnss", "lat": 51.782684450572546, "lon": 104.23098717990736, "alt_km": 19159.459711238356, "timestamp": "2025-12-26T19:22:39.149400+00:00", "meta": {"OBJECT_NAME": "COSMOS 2492 (754)", "OBJECT_ID": "2014-012A", "EPOCH": "2025-12-26T04:21:11.805696", "MEAN_MOTION": 2.13103325, "ECCENTRICITY": 0.00143205, "INCLINATION": 65.4004, "RA_OF_ASC_NODE": 319.8153, "ARG_OF_PERICENTER": 314.0587, "MEAN_ANOMALY": 45.8272, "EPHEMERIS_TYPE": 0, "CLASSIFICATION_TYPE": "U", "NORAD_CAT_ID": 39620, "ELEMENT_SET_NO": 999, "REV_AT_EPOCH": 9155, "BSTAR": 0, "MEAN_MOTION_DOT": -3.3e-07, "MEAN_MOTION_DDOT": 0}, "tle": {"line1": "1 39620U 14012A   25360.18138664 -.00000033  00000+0  00000+0 0  9996", "line2": "2 39620  65.4004 319.8153 0014320 314.0587  45.8272  2.13103325 91557"}}, "geometry": {"type": "Point", "coordinates": [104.23098717990736, 51.782684450572546]}}, {"type": "Feature", "properties": {"norad_id": 39635, "name": "IRNSS-1B", "group": "gnss", "lat": -8.669261720442867, "lon": 79.21807328565002, "alt_km": 35714.96556136053, "timestamp": "2025-12-26T19:22:39.149411+00:00", "meta": {"OBJECT_NAME": "IRNSS-1B", "OBJECT_ID": "2014-017A", "EPOCH": "2025-12-24T18:29:47.559840", "MEAN_MOTION": 1.00272104, "ECCENTRICITY": 0.00185731, "INCLINATION": 29.2343, "RA_OF_ASC_NODE": 243.3872, "ARG_OF_PERICENTER": 174.7097, "MEAN_ANOMALY": 8.021, "EPHEMERIS_TYPE": 0, "CLASSIFICATION_TYPE": "U", "NORAD_CAT_ID": 39635, "ELEMENT_SET_NO": 999, "REV_AT_EPOCH": 4304, "BSTAR": 0, "MEAN_MOTION_DOT": 1.4e-06, "MEAN_MOTION_DDOT": 0}, "tle": {"line1": "1 39635U 14017A   25358.77068935  .00000140  00000+0  00000+0 0  9990", "line2": "2 39635  29.2343 243.3872 0018573 174.7097   8.0210  1.00272104 43048"}}, "geometry": {"type": "Point", "coordinates": [79.21807328565002, -8.669261720442867]}}, {"type": "Feature", "properties": {"norad_id": 39727, "name": "LUCH 5V (SDCM/PRN 141)", "group": "gnss", "lat": 3.5935095177679135, "lon": 120.85029505642257, "alt_km": 35800.785229031026, "timestamp": "2025-12-26T19:22:39.149423+00:00", "meta": {"OBJECT_NAME": "LUCH 5V (SDCM/PRN 141)", "OBJECT_ID": "2014-023A", "EPOCH": "2025-12-26T16:08:14.425152", "MEAN_MOTION": 1.00273452, "ECCENTRICITY": 0.00038182, "INCLINATION": 4.7027, "RA_OF_ASC_NODE": 71.4189, "ARG_OF_PERICENTER": 214.7386, "MEAN_ANOMALY": 146.0681, "EPHEMERIS_TYPE": 0, "CLASSIFICATION_TYPE": "U", "NORAD_CAT_ID": 39727, "ELEMENT_SET_NO": 999, "REV_AT_EPOCH": 4263, "BSTAR": 0, "MEAN_MOTION_DOT": -2.49e-06, "MEAN_MOTION_DDOT": 0}, "tle": {"line1": "1 39727U 14023A   25360.67238918 -.00000249  00000+0  00000+0 0  9992", "line2": "2 39727   4.7027  71.4189 0003818 214.7386 146.0681  1.00273452 42636"}}, "geometry": {"type": "Point", "coordinates": [120.85029505642257, 3.5935095177679135]}}, {"type": "Feature", "properties": {"norad_id": 39741, "name": "GPS BIIF-6  (PRN 06)", "group": "gnss", "lat": -53.42169852060561, "lon": -138.96237323319338, "alt_km": 20143.851398840987, "timestamp": "2025-12-26T19:22:39.149435+00:00", "meta": {"OBJECT_NAME": "GPS BIIF-6  (PRN 06)", "OBJECT_ID": "2014-026A", "EPOCH": "2025-12-25T22:56:21.833664", "MEAN_MOTION": 2.00560326, "ECCENTRICITY": 0.00395057, "INCLINATION": 56.5784, "RA_OF_ASC_NODE": 338.2626, "ARG_OF_PERICENTER": 319.4307, "MEAN_ANOMALY": 40.2828, "EPHEMERIS_TYPE": 0, "CLASSIFICATION_TYPE": "U", "NORAD_CAT_ID": 39741, "ELEMENT_SET_NO": 999, "REV_AT_EPOCH": 8506, "BSTAR": 0, "MEAN_MOTION_DOT": -5.7e-07, "MEAN_MOTION_DDOT": 0}, "tle": {"line1": "1 39741U 14026A   25359.95580826 -.00000057  00000+0  00000+0 0  9995", "line2": "2 39741  56.5784 338.2626 0039505 319.4307  40.2828  2.00560326 85067"}}, "geometry": {"type": "Point", "coordinates": [-138.96237323319338, -53.42169852060561]}}, {"type": "Feature", "properties": {"norad_id": 40001, "name": "COSMOS 2500 (755)", "group": "gnss", "lat": -10.616666495136405, "lon": -45.39628564391862, "alt_km": 19143.601510791974, "timestamp": "2025-12-26T19:22:39.149448+00:00", "meta": {"OBJECT_NAME": "COSMOS 2500 (755)", "OBJECT_ID": "2014-032A", "EPOCH": "2025-12-26T08:28:54.444288", "MEAN_MOTION": 2.13106178, "ECCENTRICITY": 0.00076191, "INCLINATION": 65.3358, "RA_OF_ASC_NODE": 319.5702, "ARG_OF_PERICENTER": 219.616, "MEAN_ANOMALY": 140.3327, "EPHEMERIS_TYPE": 0, "CLASSIFICATION_TYPE": "U", "NORAD_CAT_ID": 40001, "ELEMENT_SET_NO": 999, "REV_AT_EPOCH": 8977, "BSTAR": 0, "MEAN_MOTION_DOT": -3.4e-07, "MEAN_MOTION_DDOT": 0}, "tle": {"line1": "1 40001U 14032A   25360.35340792 -.00000034  00000+0  00000+0 0  9990", "line2": "2 40001  65.3358 319.5702 0007619 219.6160 140.3327  2.13106178 89772"}}, "geometry": {"type": "Point", "coordinates": [-45.39628564391862, -10.616666495136405]}}, {"type": "Feature", "properties": {"norad_id": 40105, "name": "GPS BIIF-7  (PRN 09)", "group": "gnss", "lat": -10.715713494018729, "lon": -77.11607947656505, "alt_km": 20157.352950595025, "timestamp": "2025-12-26T19:22:39.149460+00:00", "meta": {"OBJECT_NAME": "GPS BIIF-7  (PRN 09)", "OBJECT_ID": "2014-045A", "EPOCH": "2025-12-23T13:11:32.096256", "MEAN_MOTION": 2.00573211, "ECCENTRICITY": 0.00324114, "INCLINATION": 55.2352, "RA_OF_ASC_NODE": 95.4677, "ARG_OF_PERICENTER": 120.1575, "MEAN_ANOMALY": 240.1743, "EPHEMERIS_TYPE": 0, "CLASSIFICATION_TYPE": "U", "NORAD_CAT_ID": 40105, "ELEMENT_SET_NO": 999, "REV_AT_EPOCH": 8255, "BSTAR": 0, "MEAN_MOTION_DOT": 8e-08, "MEAN_MOTION_DDOT": 0}, "tle": {"line1": "1 40105U 14045A   25357.54967704  .00000008  00000+0  00000+0 0  9994", "line2": "2 40105  55.2352  95.4677 0032411 120.1575 240.1743  2.00573211 82556"}}, "geometry": {"type": "Point", "coordinates": [-77.11607947656505, -10.715713494018729]}}, {"type": "Feature", "properties": {"norad_id": 40128, "name": "GSAT0201 (GALILEO 5)", "group": "gnss", "lat": -44.92171208368748, "lon": -139.33691794492267, "alt_km": 23133.50576902061, "timestamp": "2025-12-26T19:22:39.149471+00:00", "meta": {"OBJECT_NAME": "GSAT0201 (GALILEO 5)", "OBJECT_ID": "2014-050A", "EPOCH": "2025-12-25T20:43:24.583008", "MEAN_MOTION": 1.85519608, "ECCENTRICITY": 0.16491868, "INCLINATION": 49.0615, "RA_OF_ASC_NODE": 280.5285, "ARG_OF_PERICENTER": 172.7701, "MEAN_ANOMALY": 189.9925, "EPHEMERIS_TYPE": 0, "CLASSIFICATION_TYPE": "U", "NORAD_CAT_ID": 40128, "ELEMENT_SET_NO": 999, "REV_AT_EPOCH": 7510, "BSTAR": 0, "MEAN_MOTION_DOT": -4.2e-07, "MEAN_MOTION_DDOT": 0}, "tle": {"line1": "1 40128U 14050A   25359.86347897 -.00000042  00000+0  00000+0 0  9996", "line2": "2 40128  49.0615 280.5285 1649186 172.7701 189.9925  1.85519608 75101"}}, "geometry": {"type": "Point", "coordinates": [-139.33691794492267, -44.92171208368748]}}, {"type": "Feature", "properties": {"norad_id": 40129, "name": "GSAT0202 (GALILEO 6)", "group": "gnss", "lat": 48.595236759442464, "lon": -1.1629416075761918, "alt_km": 20877.424398465704, "timestamp": "2025-12-26T19:22:39.149482+00:00", "meta": {"OBJECT_NAME": "GSAT0202 (GALILEO 6)", "OBJECT_ID": "2014-050B", "EPOCH": "2025-12-26T02:52:20.314848", "MEAN_MOTION": 1.85520261, "ECCENTRICITY": 0.16497509, "INCLINATION": 49.0773, "RA_OF_ASC_NODE": 279.6017, "ARG_OF_PERICENTER": 173.5155, "MEAN_ANOMALY": 188.9707, "EPHEMERIS_TYPE": 0, "CLASSIFICATION_TYPE": "U", "NORAD_CAT_ID": 40129, "ELEMENT_SET_NO": 999, "REV_AT_EPOCH": 7727, "BSTAR": 0, "MEAN_MOTION_DOT": -4.2e-07, "MEAN_MOTION_DDOT": 0}, "tle": {"line1": "1 40129U 14050B   25360.11967957 -.00000042  00000+0  00000+0 0  9992", "line2": "2 40129  49.0773 279.6017 1649750 173.5155 188.9707  1.85520261 77272"}}, "geometry": {"type": "Point", "coordinates": [-1.1629416075761918, 48.595236759442464]}}, {"type": "Feature", "properties": {"norad_id": 40269, "name": "IRNSS-1C", "group": "gnss", "lat": 1.7881065695926706, "lon": 109.20058319312258, "alt_km": 35711.80483797111, "timestamp": "2025-12-26T19:22:39.149494+00:00", "meta": {"OBJECT_NAME": "IRNSS-1C", "OBJECT_ID": "2014-061A", "EPOCH": "2025-12-26T08:17:23.335008", "MEAN_MOTION": 1.0027305, "ECCENTRICITY": 0.00181275, "INCLINATION": 6.0766, "RA_OF_ASC_NODE": 92.349, "ARG_OF_PERICENTER": 0.7869, "MEAN_ANOMALY": 209.328, "EPHEMERIS_TYPE": 0, "CLASSIFICATION_TYPE": "U", "NORAD_CAT_ID": 40269, "ELEMENT_SET_NO": 999, "REV_AT_EPOCH": 4095, "BSTAR": 0, "MEAN_MOTION_DOT": -1.42e-06, "MEAN_MOTION_DDOT": 0}, "tle": {"line1": "1 40269U 14061A   25360.34540897 -.00000142  00000+0  00000+0 0  9995", "line2": "2 40269   6.0766  92.3490 0018127   0.7869 209.3280  1.00273050 40954"}}, "geometry": {"type": "Point", "coordinates": [109.20058319312258, 1.7881065695926706]}}, {"type": "Feature", "properties": {"norad_id": 40294, "name": "GPS BIIF-8  (PRN 03)", "group": "gnss", "lat": -55.452478779916866, "lon": -33.85118408840713, "alt_km": 20325.79146687253, "timestamp": "2025-12-26T19:22:39.149507+00:00", "meta": {"OBJECT_NAME": "GPS BIIF-8  (PRN 03)", "OBJECT_ID": "2014-068A", "EPOCH": "2025-12-26T10:04:05.410848", "MEAN_MOTION": 2.00565591, "ECCENTRICITY": 0.00608632, "INCLINATION": 56.8679, "RA_OF_ASC_NODE": 37.617, "ARG_OF_PERICENTER": 68.8991, "MEAN_ANOMALY": 291.813, "EPHEMERIS_TYPE": 0, "CLASSIFICATION_TYPE": "U", "NORAD_CAT_ID": 40294, "ELEMENT_SET_NO": 999, "REV_AT_EPOCH": 8174, "BSTAR": 0, "MEAN_MOTION_DOT": -4.9e-07, "MEAN_MOTION_DDOT": 0}, "tle": {"line1": "1 40294U 14068A   25360.41950707 -.00000049  00000+0  00000+0 0  9999", "line2": "2 40294  56.8679  37.6170 0060863  68.8991 291.8130  2.00565591 81747"}}, "geometry": {"type": "Point", "coordinates": [-33.85118408840713, -55.452478779916866]}}]}